21P/Giacobini-Zinner,e,32.0584,195.3450,172.8977,3.494530,0.1508763,0.71124271,259.4473,05/29.0/2023,2000,g 11.4,4.0
# From MPEC 2023-BF4
22P/Kopff,e,4.7425,120.7315,162.9876,3.438981,0.1545466,0.54961451,67.5059,05/29.0/2023,2000,g  3.0,10.4
# From MPC 14747
23P/Brorsen-Metcalf,e,19.2649,311.9151,129.2688,16.94235,0.0141333,0.97221378,0.0000,08/12.9670/1989,2000,g 10.0,6.0
# From MPC110085
24P/Schaumasse,e,11.5030,78.3147,58.4583,4.055366,0.1206866,0.70775316,244.6534,05/29.0/2023,2000,g  6.5,14.0
# From MPEC 2022-Y15
26P/Grigg-Skjellerup,e,22.4331,211.5415,2.1506,3.015457,0.1882237,0.64055376,320.4068,05/29.0/2023,2000,g 12.0,16.0
# From MPC 78188
27P/Crommelin,e,29.3782,250.6777,195.8509,9.180422,0.0354332,0.91912995,153.2624,05/29.0/2023,2000,g 12.0,8.0
# From MPEC 2023-FK0
28P/Neujmin,e,14.3098,346.3472,347.4695,6.981881,0.0534251,0.77352924,43.1820,05/29.0/2023,2000,g  8.5,6.0
# From MPEC 2023-KD6
29P/Schwassmann-Wachmann,e,9.3626,312.4003,51.3057,6.049101,0.0662472,0.04458979,99.0457,05/29.0/2023,2000,g  4.0,4.0
# From MPEC 2023-CD7
30P/Reinmuth,e,8.0544,117.4206,9.4470,3.735101,0.1365371,0.51560379,299.0951,05/29.0/2023,2000,g  9.5,6.0
# From MPEC 2021-F20
31P/Schwassmann-Wachmann,e,4.5486,114.1048,17.8706,4.234891,0.1130943,0.19245539,161.2340,05/29.0/2023,2000,g 13.1,4.0
# From MPEC 2023-J29
32P/ComasSola,e,9.9159,54.5416,54.7138,4.559665,0.1012289,0.55637907,326.8598,05/29.0/2023,2000,g  6.5,8.0
# From MPEC 2023-J29
33P/Daniel,e,22.2939,66.2954,20.4484,4.088833,0.1192079,0.45187817,296.5163,05/29.0/2023,2000,g 10.0,12.0
# From  15, 452
35P/Herschel-Rigollet,e,65.176,356.670,29.004,28.5440,0.006463,0.9744355,0.000,02/20.7670/2092,2000,g  9.0,4.0
# From MPEC 2022-ED3
36P/Whipple,e,9.9525,181.8414,201.0740,4.137774,0.1170992,0.26901941,127.7475,05/29.0/2023,2000,g  8.5,6.0
# From MPEC 2021-F20
37P/Forbes,e,8.9501,314.5652,330.0915,3.462128,0.1529993,0.53298042,283.3082,05/29.0/2023,2000,g 13.8,4.0
# From MPEC 2018-S50
38P/Stephan-Oterma,e,18.3964,77.8914,359.5129,11.24087,0.0261520,0.85954146,43.3821,05/29.0/2023,2000,g  3.5,12.0
# From MPEC 2022-A21
39P/Oterma,e,1.5456,296.2815,102.5898,7.238533,0.0506091,0.21153643,357.9045,05/29.0/2023,2000,g  7.0,6.0
# From MPC100283
40P/Vaisala,e,11.4588,133.5355,47.5896,4.956456,0.0893197,0.63156819,279.6165,05/29.0/2023,2000,g  5.5,12.0
# From MPEC 2023-J29
41P/Tuttle-Giacobini-Kresak,e,9.2204,140.9881,62.2155,3.088186,0.1816138,0.65989235,46.7486,05/29.0/2023,2000,g 10.0,16.0
# From MPC 94283
42P/Neujmin,e,3.9906,150.1757,147.2163,4.874488,0.0915821,0.58445746,271.9206,05/29.0/2023,2000,g 13.0,6.0
# From MPEC 2023-J29
43P/Wolf-Harrington,e,9.3470,244.0299,224.2450,4.328112,0.1094602,0.43443668,271.5842,05/29.0/2023,2000,g  8.0,6.0
# From MPEC 2023-J29
44P/Reinmuth,e,5.8971,286.4273,58.0281,3.688246,0.1391471,0.42733501,55.8013,05/29.0/2023,2000,g  8.3,6.0
# From MPEC 2022-O01
45P/Honda-Mrkos-Pajdusakova,e,4.3232,87.6861,327.9288,3.055948,0.1844952,0.81769004,73.2463,05/29.0/2023,2000,g 13.5,8.0
# From MPEC 2023-J29
46P/Wirtanen,e,11.7494,82.1629,356.3270,3.091057,0.1813609,0.65871166,295.4111,05/29.0/2023,2000,g 14.0,6.0
# From MPEC 2023-J29
47P/Ashbrook-Jackson,e,13.0395,356.9162,357.7766,4.121590,0.1177896,0.31868654,256.0596,05/29.0/2023,2000,g  1.0,11.2
# From MPEC 2023-FK0
48P/Johnson,e,12.2003,110.0856,216.7496,3.501092,0.1504523,0.42706590,263.1881,05/29.0/2023,2000,g 10.0,6.0
# From MPEC 2023-J95
49P/Arend-Rigaux,e,19.0542,118.7914,332.9229,3.569305,0.1461600,0.59866911,260.2042,05/29.0/2023,2000,g 11.3,4.4
# From MPEC 2015-S97
50P/Arend,e,19.1013,355.1725,49.3574,4.087402,0.1192705,0.52966728,318.2739,05/29.0/2023,2000,g  9.5,6.0
# From MPEC 2023-J29
51P/Harrington,e,5.4266,83.6614,269.2444,3.706331,0.1381299,0.54336809,33.1163,05/29.0/2023,2000,g 10.0,8.0
# From NK 3014
51P-A/Harrington,e,5.4266,83.6615,269.2157,3.708004,0.1380364,0.54360685,32.7404,05/29.0/2023,2000,g 10.0,8.0
# From MPEC 2023-J29
51P-D/Harrington,e,5.4271,83.6497,269.2627,3.706692,0.1381097,0.54349785,33.0531,05/29.0/2023,2000,g 16.0,8.0
# From MPEC 2023-J29
52P/Harrington-Abell,e,10.2310,336.8217,139.5584,3.863567,0.1297841,0.54035975,77.9710,05/29.0/2023,2000,g 13.5,6.0
# From MPEC 2023-J29
53P/VanBiesbroeck,e,6.6075,148.8270,134.4829,5.433156,0.0778262,0.55031650,201.3468,05/29.0/2023,2000,g  7.7,4.8
# From MPC 89011
54P/de Vico-Swift-NEAT,e,6.0641,358.8090,1.9097,3.787908,0.1336919,0.42645069,297.9972,05/29.0/2023,2000,g  9.0,4.0
# From MPC 31070
55P/Tempel-Tuttle,e,162.5094,235.4214,172.4748,10.35520,0.0295778,0.90525933,273.7798,05/29.0/2023,2000,g  9.0,4.0
# From MPEC 2023-J29
56P/Slaughter-Burnham,e,8.1587,345.9728,44.0654,5.065783,0.0864439,0.50857449,216.1317,05/29.0/2023,2000,g  8.5,6.0
# From MPEC 2023-HD1
57P/duToit-Neujmin-Delporte,e,2.8524,188.7781,115.1292,3.443297,0.1542561,0.50082717,90.8370,05/29.0/2023,2000,g 13.7,4.0
# From MPEC 2023-J29
58P/Jackson-Neujmin,e,13.1071,159.0707,200.5325,4.088354,0.1192289,0.66264639,130.7098,05/29.0/2023,2000,g 15.5,6.0
# From MPEC 2023-A50
59P/Kearns-Kwee,e,9.3454,312.7806,127.5333,4.482747,0.1038455,0.47630755,177.9972,05/29.0/2023,2000,g  7.0,6.0
# From MPEC 2021-F20
60P/Tsuchinshan,e,3.5800,267.4336,216.9838,3.526340,0.1488393,0.53358607,243.3152,05/29.0/2023,2000,g 11.5,6.0
# From MPEC 2023-J29
61P/Shajn-Schaldach,e,5.9995,162.9611,221.6371,3.688668,0.1391232,0.42370168,30.2275,05/29.0/2023,2000,g  6.0,10.0
# From MPEC 2023-J29
62P/Tsuchinshan,e,4.7382,68.7025,47.2711,3.370559,0.1592763,0.62484312,326.5126,05/29.0/2023,2000,g  8.0,10.0
# From MPC 84320
63P/Wild,e,19.7097,358.0005,168.9373,5.617414,0.0740286,0.65005480,275.8939,05/29.0/2023,2000,g 10.5,6.0
# From MPEC 2023-A50
64P/Swift-Gehrels,e,8.9492,299.8874,97.1866,4.452528,0.1049045,0.68871031,174.6807,05/29.0/2023,2000,g  9.5,12.0
# From MPEC 2023-KD6
65P/Gunn,e,9.1757,61.9825,213.8477,3.889589,0.1284838,0.24832601,263.6270,05/29.0/2023,2000,g  5.0,6.0
# From MPEC 2021-F20
66P/duToit,e,18.6388,21.7789,257.4867,6.070575,0.0658960,0.78566862,121.0893,05/29.0/2023,2000,g 15.0,4.0
# From MPEC 2023-J29
67P/Churyumov-Gerasimenko,e,3.8718,36.3291,22.1549,3.457540,0.1533039,0.64991831,87.8153,05/29.0/2023,2000,g 11.0,4.0
# From MPEC 2023-HD1
68P/Klemola,e,11.1107,175.0506,153.2561,4.959858,0.0892278,0.63701151,115.7449,05/29.0/2023,2000,g 12.6,4.0
# From MPEC 2023-A50
69P/Taylor,e,22.0494,104.8046,343.3988,3.883924,0.1287651,0.41402878,197.2839,05/29.0/2023,2000,g  9.5,12.0
# From MPEC 2023-G31
70P/Kojima,e,6.5984,119.2518,1.7905,3.677259,0.1397712,0.45400640,79.9352,05/29.0/2023,2000,g 11.0,6.0
# From MPEC 2023-KD6
71P/Clark,e,9.4381,59.3925,209.0651,3.138307,0.1772805,0.49372152,22.3761,05/29.0/2023,2000,g  9.8,6.0
# From MPEC 2023-KD6
72P/Denning-Fujikawa,e,10.9488,26.7008,346.7349,4.307237,0.1102569,0.81867447,358.0402,05/29.0/2023,2000,g 17.5,10.0
# From MPEC 2023-J29
73P/Schwassmann-Wachmann,e,11.2355,69.5755,199.5117,3.093821,0.1811179,0.68574419,50.0120,05/29.0/2023,2000,g 11.5,6.0
# From MPEC 2023-J29
73P-T/Schwassmann-Wachmann,e,11.2393,69.5806,199.4917,3.092563,0.1812284,0.68565673,50.2596,05/29.0/2023,2000,g  9.0,4.0
# From MPEC 2022-P18
73P-U/Schwassmann-Wachmann,e,11.0764,70.6464,199.8888,2.877054,0.2019677,0.66644834,55.9548,05/29.0/2023,2000,g 19.0,4.0
# From MPEC 2022-X67
73P-V/Schwassmann-Wachmann,e,11.2516,69.4531,199.3891,3.147278,0.1765230,0.69066109,48.8848,05/29.0/2023,2000,g 19.0,4.0
# From MPEC 2022-R15
73P-W/Schwassmann-Wachmann,e,11.6138,67.2599,198.7926,4.599210,0.0999262,0.78258324,27.6228,05/29.0/2023,2000,g 18.2,4.0
# From MPEC 2023-A50
73P-X/Schwassmann-Wachmann,e,11.2673,69.4465,199.4072,3.126522,0.1782837,0.68860945,49.3130,05/29.0/2023,2000,g 17.5,4.0
# From MPEC 2022-R15
73P-Y/Schwassmann-Wachmann,e,11.2057,69.7337,199.4835,3.035537,0.1863592,0.68034811,51.7398,05/29.0/2023,2000,g 17.4,4.0
# From MPEC 2022-P18
73P-BU/Schwassmann-Wachmann,e,11.0764,70.6464,199.8888,2.877054,0.2019677,0.66644834,55.9548,05/29.0/2023,2000,g 19.0,4.0
# From MPEC 2022-X67
73P-BV/Schwassmann-Wachmann,e,11.2516,69.4531,199.3891,3.147278,0.1765230,0.69066109,48.8848,05/29.0/2023,2000,g 19.0,4.0
# From MPEC 2022-R15
73P-BW/Schwassmann-Wachmann,e,11.6138,67.2599,198.7926,4.599210,0.0999262,0.78258324,27.6228,05/29.0/2023,2000,g 18.2,4.0
# From MPEC 2023-A50
73P-BX/Schwassmann-Wachmann,e,11.2673,69.4465,199.4072,3.126522,0.1782837,0.68860945,49.3130,05/29.0/2023,2000,g 17.5,4.0
# From MPEC 2022-R15
73P-BY/Schwassmann-Wachmann,e,11.2057,69.7337,199.4835,3.035537,0.1863592,0.68034811,51.7398,05/29.0/2023,2000,g 17.4,4.0
# From MPEC 2023-J95
74P/Smirnova-Chernykh,e,6.4364,53.9826,139.5732,4.698006,0.0967907,0.06838486,184.2143,05/29.0/2023,2000,g  5.0,6.0
# From MPEC 2022-K19
76P/West-Kohoutek-Ikemura,e,30.4872,84.1048,359.9369,3.470227,0.1524640,0.53888321,199.7860,05/29.0/2023,2000,g  8.0,12.0
# From MPEC 2023-KD6
77P/Longmore,e,24.3187,14.7678,196.7274,3.623829,0.1428738,0.35185642,7.9855,05/29.0/2023,2000,g  7.0,8.0
# From MPEC 2021-O56
78P/Gehrels,e,6.2574,210.5195,192.6575,3.736622,0.1364537,0.46300540,206.7865,05/29.0/2023,2000,g  5.5,8.0
# From MPC 94675
79P/du Toit-Hartley,e,3.1487,280.5196,281.7885,2.943853,0.1951326,0.61919473,335.7330,05/29.0/2023,2000,g 16.0,4.0
# From MPEC 2023-KD6
80P/Peters-Hartley,e,29.9233,259.7955,339.2431,4.023204,0.1221366,0.59849088,20.9042,05/29.0/2023,2000,g  9.0,8.0
# From MPEC 2023-KD6
81P/Wild,e,3.2364,136.0975,41.6217,3.454265,0.1535220,0.53727146,25.2379,05/29.0/2023,2000,g  7.0,6.0
# From MPC133426
82P/Gehrels,e,1.1291,239.2450,226.4137,4.132992,0.1173025,0.12214306,211.2995,05/29.0/2023,2000,g 15.0,4.0
# From MPEC 2020-FB5
84P/Giclas,e,7.5502,108.1270,281.6567,3.549992,0.1473544,0.51608500,160.3979,05/29.0/2023,2000,g  9.5,8.0
# From MPEC 2022-YB4
86P/Wild,e,15.4765,72.2903,179.7045,3.607222,0.1438616,0.37249184,68.3014,05/29.0/2023,2000,g 11.0,6.0
# From MPEC 2020-SI8
87P/Bus,e,4.5780,183.9339,50.4374,4.067181,0.1201611,0.30364548,125.8678,05/29.0/2023,2000,g  7.2,10.0
# From MPEC 2023-J29
